{"type": "FeatureCollection", "features": [ {"type": "Feature", "properties": {"norad_id": 34432, "name": "COSMOS 2251 DEB", "group": "cosmos-2251-debris", "lat": 24.56458675644005, "lon": -103.00491100588486, "alt_km": 753.0792977644087, "timestamp": "2025-12-22T18:58:53.827096+00:00", "meta": {"OBJECT_NAME": "COSMOS 2251 DEB", "OBJECT_ID": "1993-036RZ", "EPOCH": "2025-12-21T17:09:52.890336", "MEAN_MOTION": 14.02941941, "ECCENTRICITY": 0.01817423, "INCLINATION": 73.8282, "RA_OF_ASC_NODE": 86.5116, "ARG_OF_PERICENTER": 167.7838, "MEAN_ANOMALY": 316.0088, "EPHEMERIS_TYPE": 0, "CLASSIFICATION_TYPE": "U", "NORAD_CAT_ID": 34432, "ELEMENT_SET_NO": 999, "REV_AT_EPOCH": 85810, "BSTAR": 0.00083158444, "MEAN_MOTION_DOT": 1.467e-05, "MEAN_MOTION_DDOT": 0}, "tle": {"line1": "1 34432U 93036RZ  25355.71519549  .00001467  00000+0  83158-3 0  9993", "line2": "2 34432  73.8282  86.5116 0181742 167.7838 316.0088 14.02941941858101"}}, "geometry": {"type": "Point", "coordinates": [-103.00491100588486, 24.56458675644005]}}, {"type": "Feature", "properties": {"norad_id": 34433, "name": "COSMOS 2251 DEB", "group": "cosmos-2251-debris", "lat": 3.4034256496777746, "lon": -43.839026197388584, "alt_km": 862.896179365709, "timestamp": "2025-12-22T18:58:53.827106+00:00", "meta": {"OBJECT_NAME": "COSMOS 2251 DEB", "OBJECT_ID": "1993-036SA", "EPOCH": "2025-12-21T20:02:32.025696", "MEAN_MOTION": 14.12888627, "ECCENTRICITY": 0.01527964, "INCLINATION": 74.0104, "RA_OF_ASC_NODE": 138.8303, "ARG_OF_PERICENTER": 274.9863, "MEAN_ANOMALY": 83.385, "EPHEMERIS_TYPE": 0, "CLASSIFICATION_TYPE": "U", "NORAD_CAT_ID": 34433, "ELEMENT_SET_NO": 999, "REV_AT_EPOCH": 86078, "BSTAR": 0.00089614535, "MEAN_MOTION_DOT": 1.837e-05, "MEAN_MOTION_DDOT": 0}, "tle": {"line1": "1 34433U 93036SA  25355.83509289  .00001837  00000+0  89615-3 0  9992", "line2": "2 34433  74.0104 138.8303 0152796 274.9863  83.3850 14.12888627860783"}}, "geometry": {"type": "Point", "coordinates": [-43.839026197388584, 3.4034256496777746]}}, {"type": "Feature", "properties": {"norad_id": 34434, "name": "COSMOS 2251 DEB", "group": "cosmos-2251-debris", "lat": -42.5947347565837, "lon": -22.200484737579835, "alt_km": 1133.7096312364974, "timestamp": "2025-12-22T18:58:53.827116+00:00", "meta": {"OBJECT_NAME": "COSMOS 2251 DEB", "OBJECT_ID": "1993-036SB", "EPOCH": "2025-12-22T05:52:45.991200", "MEAN_MOTION": 13.89860433, "ECCENTRICITY": 0.02738237, "INCLINATION": 74.0622, "RA_OF_ASC_NODE": 353.9587, "ARG_OF_PERICENTER": 128.9839, "MEAN_ANOMALY": 336.2969, "EPHEMERIS_TYPE": 0, "CLASSIFICATION_TYPE": "U", "NORAD_CAT_ID": 34434, "ELEMENT_SET_NO": 999, "REV_AT_EPOCH": 84098, "BSTAR": 0.0014276754, "MEAN_MOTION_DOT": 2.354e-05, "MEAN_MOTION_DDOT": 0}, "tle": {"line1": "1 34434U 93036SB  25356.24497675  .00002354  00000+0  14277-2 0  9990", "line2": "2 34434  74.0622 353.9587 0273823 128.9839 336.2969 13.89860433840988"}}, "geometry": {"type": "Point", "coordinates": [-22.200484737579835, -42.5947347565837]}}, {"type": "Feature", "properties": {"norad_id": 34446, "name": "COSMOS 2251 DEB", "group": "cosmos-2251-debris", "lat": 44.054557188580375, "lon": -157.63941729816347, "alt_km": 696.1678165345011, "timestamp": "2025-12-22T18:58:53.827126+00:00", "meta": {"OBJECT_NAME": "COSMOS 2251 DEB", "OBJECT_ID": "1993-036SP", "EPOCH": "2025-12-21T22:29:12.990624", "MEAN_MOTION": 14.49362668, "ECCENTRICITY": 0.0050696, "INCLINATION": 74.0416, "RA_OF_ASC_NODE": 40.034, "ARG_OF_PERICENTER": 175.8746, "MEAN_ANOMALY": 184.2843, "EPHEMERIS_TYPE": 0, "CLASSIFICATION_TYPE": "U", "NORAD_CAT_ID": 34446, "ELEMENT_SET_NO": 999, "REV_AT_EPOCH": 88827, "BSTAR": 0.00011387, "MEAN_MOTION_DOT": 4.14e-06, "MEAN_MOTION_DDOT": 0}, "tle": {"line1": "1 34446U 93036SP  25355.93695591  .00000414  00000+0  11387-3 0  9990", "line2": "2 34446  74.0416  40.0340 0050696 175.8746 184.2843 14.49362668888272"}}, "geometry": {"type": "Point", "coordinates": [-157.63941729816347, 44.054557188580375]}}, {"type": "Feature", "properties": {"norad_id": 34449, "name": "COSMOS 2251 DEB", "group": "cosmos-2251-debris", "lat": 41.1536755633791, "lon": -144.21198514580385, "alt_km": 567.3880981758812, "timestamp": "2025-12-22T18:58:53.827136+00:00", "meta": {"OBJECT_NAME": "COSMOS 2251 DEB", "OBJECT_ID": "1993-036SS", "EPOCH": "2025-12-21T14:01:22.624032", "MEAN_MOTION": 14.9530995, "ECCENTRICITY": 0.0022739, "INCLINATION": 74.0321, "RA_OF_ASC_NODE": 52.7148, "ARG_OF_PERICENTER": 89.8054, "MEAN_ANOMALY": 34.0385, "EPHEMERIS_TYPE": 0, "CLASSIFICATION_TYPE": "U", "NORAD_CAT_ID": 34449, "ELEMENT_SET_NO": 999, "REV_AT_EPOCH": 88825, "BSTAR": 0.0018531, "MEAN_MOTION_DOT": 0.00020555, "MEAN_MOTION_DDOT": 0}, "tle": {"line1": "1 34449U 93036SS  25355.58428963  .00020555  00000+0  18531-2 0  9996", "line2": "2 34449  74.0321  52.7148 0022739  89.8054  34.0385 14.95309950888256"}}, "geometry": {"type": "Point", "coordinates": [-144.21198514580385, 41.1536755633791]}}, {"type": "Feature", "properties": {"norad_id": 34451, "name": "COSMOS 2251 DEB", "group": "cosmos-2251-debris", "lat": 44.38401219042974, "lon": -128.6725584292357, "alt_km": 564.5393676738331, "timestamp": "2025-12-22T18:58:53.827146+00:00", "meta": {"OBJECT_NAME": "COSMOS 2251 DEB", "OBJECT_ID": "1993-036SU", "EPOCH": "2025-12-22T05:33:05.101056", "MEAN_MOTION": 14.96073953, "ECCENTRICITY": 0.00238449, "INCLINATION": 74.0466, "RA_OF_ASC_NODE": 68.7153, "ARG_OF_PERICENTER": 82.7849, "MEAN_ANOMALY": 277.6045, "EPHEMERIS_TYPE": 0, "CLASSIFICATION_TYPE": "U", "NORAD_CAT_ID": 34451, "ELEMENT_SET_NO": 999, "REV_AT_EPOCH": 88777, "BSTAR": 0.0029135722, "MEAN_MOTION_DOT": 0.00033055, "MEAN_MOTION_DDOT": 0}, "tle": {"line1": "1 34451U 93036SU  25356.23130904  .00033055  00000+0  29136-2 0  9999", "line2": "2 34451  74.0466  68.7153 0023844  82.7849 277.6045 14.96073953887770"}}, "geometry": {"type": "Point", "coordinates": [-128.6725584292357, 44.38401219042974]}}, {"type": "Feature", "properties": {"norad_id": 34452, "name": "COSMOS 2251 DEB", "group": "cosmos-2251-debris", "lat": 70.91133654602375, "lon": -142.15147148638997, "alt_km": 564.066741141185, "timestamp": "2025-12-22T18:58:53.827157+00:00", "meta": {"OBJECT_NAME": "COSMOS 2251 DEB", "OBJECT_ID": "1993-036SV", "EPOCH": "2025-12-22T06:11:51.890208", "MEAN_MOTION": 15.11920756, "ECCENTRICITY": 0.00647153, "INCLINATION": 74.032, "RA_OF_ASC_NODE": 163.1157, "ARG_OF_PERICENTER": 237.3087, "MEAN_ANOMALY": 184.4245, "EPHEMERIS_TYPE": 0, "CLASSIFICATION_TYPE": "U", "NORAD_CAT_ID": 34452, "ELEMENT_SET_NO": 999, "REV_AT_EPOCH": 90806, "BSTAR": 0.0009769322, "MEAN_MOTION_DOT": 0.0001761, "MEAN_MOTION_DDOT": 0}, "tle": {"line1": "1 34452U 93036SV  25356.25823947  .00017610  00000+0  97693-3 0  9991", "line2": "2 34452  74.0320 163.1157 0064715 237.3087 184.4245 15.11920756908061"}}, "geometry": {"type": "Point", "coordinates": [-142.15147148638997, 70.91133654602375]}}, {"type": "Feature", "properties": {"norad_id": 34454, "name": "COSMOS 2251 DEB", "group": "cosmos-2251-debris", "lat": -4.551788379638348, "lon": -102.17660076409727, "alt_km": 744.7480317933059, "timestamp": "2025-12-22T18:58:53.827166+00:00", "meta": {"OBJECT_NAME": "COSMOS 2251 DEB", "OBJECT_ID": "1993-036SX", "EPOCH": "2025-12-22T03:59:06.492768", "MEAN_MOTION": 14.38822755, "ECCENTRICITY": 0.00358897, "INCLINATION": 74.0586, "RA_OF_ASC_NODE": 260.2776, "ARG_OF_PERICENTER": 320.9292, "MEAN_ANOMALY": 38.9271, "EPHEMERIS_TYPE": 0, "CLASSIFICATION_TYPE": "U", "NORAD_CAT_ID": 34454, "ELEMENT_SET_NO": 999, "REV_AT_EPOCH": 88203, "BSTAR": 0.0002070495, "MEAN_MOTION_DOT": 6.15e-06, "MEAN_MOTION_DDOT": 0}, "tle": {"line1": "1 34454U 93036SX  25356.16604737  .00000615  00000+0  20705-3 0  9994", "line2": "2 34454  74.0586 260.2776 0035889 320.9292  38.9271 14.38822755882038"}}, "geometry": {"type": "Point", "coordinates": [-102.17660076409727, -4.551788379638348]}}, {"type": "Feature", "properties": {"norad_id": 34459, "name": "COSMOS 2251 DEB", "group": "cosmos-2251-debris", "lat": 47.87539901180122, "lon": -104.92400002178655, "alt_km": 924.2239169925988, "timestamp": "2025-12-22T18:58:53.827176+00:00", "meta": {"OBJECT_NAME": "COSMOS 2251 DEB", "OBJECT_ID": "1993-036TC", "EPOCH": "2025-12-22T01:35:59.550144", "MEAN_MOTION": 14.00513623, "ECCENTRICITY": 0.01921145, "INCLINATION": 74.0786, "RA_OF_ASC_NODE": 237.9285, "ARG_OF_PERICENTER": 305.6081, "MEAN_ANOMALY": 52.7285, "EPHEMERIS_TYPE": 0, "CLASSIFICATION_TYPE": "U", "NORAD_CAT_ID": 34459, "ELEMENT_SET_NO": 999, "REV_AT_EPOCH": 85842, "BSTAR": 0.00037140359, "MEAN_MOTION_DOT": 6.22e-06, "MEAN_MOTION_DDOT": 0}, "tle": {"line1": "1 34459U 93036TC  25356.06666146  .00000622  00000+0  37140-3 0  9999", "line2": "2 34459  74.0786 237.9285 0192114 305.6081  52.7285 14.00513623858427"}}, "geometry": {"type": "Point", "coordinates": [-104.92400002178655, 47.87539901180122]}}, {"type": "Feature", "properties": {"norad_id": 34464, "name": "COSMOS 2251 DEB", "group": "cosmos-2251-debris", "lat": 66.00758374429739, "lon": -163.2876770760198, "alt_km": 480.28317749287635, "timestamp": "2025-12-22T18:58:53.827187+00:00", "meta": {"OBJECT_NAME": "COSMOS 2251 DEB", "OBJECT_ID": "1993-036TH", "EPOCH": "2025-12-22T04:22:13.819296", "MEAN_MOTION": 15.28316951, "ECCENTRICITY": 0.00144677, "INCLINATION": 73.989, "RA_OF_ASC_NODE": 58.1879, "ARG_OF_PERICENTER": 240.7326, "MEAN_ANOMALY": 119.2429, "EPHEMERIS_TYPE": 0, "CLASSIFICATION_TYPE": "U", "NORAD_CAT_ID": 34464, "ELEMENT_SET_NO": 999, "REV_AT_EPOCH": 89984, "BSTAR": 0.0030220789, "MEAN_MOTION_DOT": 0.00084545, "MEAN_MOTION_DDOT": 0}, "tle": {"line1": "1 34464U 93036TH  25356.18210439  .00084545  00000+0  30221-2 0  9996", "line2": "2 34464  73.9890  58.1879 0014467 240.7326 119.2429 15.28316951899840"}}, "geometry": {"type": "Point", "coordinates": [-163.2876770760198, 66.00758374429739]}}]}